[{"OBJECT_NAME":"NOAA 18","OBJECT_ID":"2005-018A","EPOCH":"2026-03-28T05:26:05.724096","MEAN_MOTION":14.13714518,"ECCENTRICITY":0.00145968,"INCLINATION":98.8132,"RA_OF_ASC_NODE":168.0719,"ARG_OF_PERICENTER":25.4964,"MEAN_ANOMALY":334.6925,"EPHEMERIS_TYPE":0,"CLASSIFICATION_TYPE":"U","NORAD_CAT_ID":28654,"ELEMENT_SET_NO":999,"REV_AT_EPOCH":7487,"BSTAR":4.5266942e-5,"MEAN_MOTION_DOT":4.2e-7,"MEAN_MOTION_DDOT":0},{"OBJECT_NAME":"NOAA 19","OBJECT_ID":"2009-005A","EPOCH":"2026-03-28T03:21:49.087872","MEAN_MOTION":14.13460335,"ECCENTRICITY":0.00127264,"INCLINATION":98.9573,"RA_OF_ASC_NODE":157.9392,"ARG_OF_PERICENTER":258.3362,"MEAN_ANOMALY":101.6382,"EPHEMERIS_TYPE":0,"CLASSIFICATION_TYPE":"U","NORAD_CAT_ID":33591,"ELEMENT_SET_NO":999,"REV_AT_EPOCH":88303,"BSTAR":4.357963e-5,"MEAN_MOTION_DOT":3.7e-7,"MEAN_MOTION_DDOT":0},{"OBJECT_NAME":"SUOMI NPP","OBJECT_ID":"2011-061A","EPOCH":"2026-03-28T05:03:11.841408","MEAN_MOTION":14.19498397,"ECCENTRICITY":0.00016307,"INCLINATION":98.7892,"RA_OF_ASC_NODE":28.668,"ARG_OF_PERICENTER":160.6751,"MEAN_ANOMALY":199.4488,"EPHEMERIS_TYPE":0,"CLASSIFICATION_TYPE":"U","NORAD_CAT_ID":37849,"ELEMENT_SET_NO":999,"REV_AT_EPOCH":74695,"BSTAR":7.1357024e-5,"MEAN_MOTION_DOT":1.06e-6,"MEAN_MOTION_DDOT":0},{"OBJECT_NAME":"NOAA 20 (JPSS-1)","OBJECT_ID":"2017-073A","EPOCH":"2026-03-28T05:23:59.753760","MEAN_MOTION":14.19540842,"ECCENTRICITY":0.00018829,"INCLINATION":98.7712,"RA_OF_ASC_NODE":27.4302,"ARG_OF_PERICENTER":112.5419,"MEAN_ANOMALY":247.5956,"EPHEMERIS_TYPE":0,"CLASSIFICATION_TYPE":"U","NORAD_CAT_ID":43013,"ELEMENT_SET_NO":999,"REV_AT_EPOCH":43298,"BSTAR":6.4956715e-5,"MEAN_MOTION_DOT":9.3e-7,"MEAN_MOTION_DDOT":0}]
