NOAA 18                 
1 28654U 05018A   26087.22645514  .00000042  00000+0  45267-4 0  9994
2 28654  98.8132 168.0719 0014596  25.4964 334.6925 14.13714518 74878
NOAA 19                 
1 33591U 09005A   26087.14015148  .00000037  00000+0  43580-4 0  9995
2 33591  98.9573 157.9392 0012726 258.3362 101.6382 14.13460335883030
SUOMI NPP               
1 37849U 11061A   26087.21055372  .00000106  00000+0  71357-4 0  9991
2 37849  98.7892  28.6680 0001630 160.6751 199.4488 14.19498397746951
NOAA 20 (JPSS-1)        
1 43013U 17073A   26087.22499715  .00000093  00000+0  64957-4 0  9997
2 43013  98.7712  27.4302 0001882 112.5419 247.5956 14.19540842432989
